IRIDIUM 155             
1 43573U 18061E   22055.90077292  .00000136  00000+0  41676-4 0  9995
2 43573  86.4016 354.1859 0002539  87.8740 272.2746 14.34217600187854
IRIDIUM 154             
1 43574U 18061F   22055.88174736  .00000135  00000+0  41249-4 0  9999
2 43574  86.4021 354.2521 0001853  88.3787 271.7621 14.34216639187906
IRIDIUM 163             
1 43575U 18061G   22055.86270922  .00000129  00000+0  39097-4 0  9993
2 43575  86.4018 354.2234 0002027  73.7001 286.4418 14.34216134187878
IRIDIUM 156             
1 43576U 18061H   22055.90712016  .00000135  00000+0  41080-4 0  9996
2 43576  86.4018 354.2102 0002357  78.8303 281.3158 14.34216502187874
IRIDIUM 164             
1 43577U 18061J   22055.88807566  .00000146  00000+0  44964-4 0  9995
2 43577  86.4019 354.2345 0001883  83.3400 276.8010 14.34214954187917
IRIDIUM 159             
1 43578U 18061K   22055.92612070  .00000136  00000+0  41461-4 0  9993
2 43578  86.4018 354.1885 0001913  86.3942 273.7473 14.34222752187883
IRIDIUM 180             
1 43922U 19002A   22055.71632772  .00000128  00000+0  38719-4 0  9993
2 43922  86.3945 291.1433 0001262  82.4962 277.6377 14.34215565163467
IRIDIUM 176             
1 43923U 19002B   22055.70651172  .00000373  00000+0  55194-4 0  9996
2 43923  86.6080 291.1824 0002345  92.1966 267.9520 14.72256400167742
IRIDIUM 168             
1 43924U 19002C   22055.70998176  .00000130  00000+0  39401-4 0  9999
2 43924  86.3948 291.1788 0001768  90.1046 270.0352 14.34219321163447
IRIDIUM 173             
1 43925U 19002D   22055.69730369  .00000122  00000+0  36543-4 0  9991
2 43925  86.3945 291.1372 0001809  87.0971 273.0432 14.34217402163420
IRIDIUM 169             
1 43926U 19002E   22055.83113784  .00000158  00000+0  45125-4 0  9999
2 43926  86.4251 322.6926 0006532 111.6383 248.5512 14.38615062164027
IRIDIUM 172             
1 43927U 19002F   22055.69096192  .00000124  00000+0  37338-4 0  9997
2 43927  86.3945 291.1429 0001712  86.9498 273.1894 14.34216726163432
IRIDIUM 175             
1 43928U 19002G   22055.70029386  .00000367  00000+0  54352-4 0  9995
2 43928  86.6082 291.0120 0001985  86.1306 274.0138 14.72264837167733
IRIDIUM 171             
1 43929U 19002H   22055.74170656  .00000124  00000+0  37127-4 0  9999
2 43929  86.3955 291.2533 0001774  90.6430 269.4969 14.34218197163433
IRIDIUM 170             
1 43930U 19002J   22055.71270892  .00000370  00000+0  54827-4 0  9990
2 43930  86.6080 291.1856 0002197  92.5765 267.5703 14.72255015167752
IRIDIUM 167             
1 43931U 19002K   22055.73535199  .00000130  00000+0  39347-4 0  9991
2 43931  86.3946 291.1328 0001460  88.0430 272.0933 14.34220914163431
